{"fetched_at":"2026-07-20T18:29:47.142Z","source":"https://celestrak.org/NORAD/elements/gp.php?NAME=SPOT&FORMAT=JSON","constellation":"spot","records":[{"OBJECT_NAME":"SPOT 6","OBJECT_ID":"2012-047A","EPOCH":"2026-07-20T07:59:08.742912","CLASSIFICATION_TYPE":"U","MEAN_MOTION":14.58539554,"ECCENTRICITY":0.00010957,"INCLINATION":98.2099,"RA_OF_ASC_NODE":268.2507,"ARG_OF_PERICENTER":93.2886,"MEAN_ANOMALY":266.8438,"EPHEMERIS_TYPE":0,"NORAD_CAT_ID":38755,"ELEMENT_SET_NO":999,"REV_AT_EPOCH":73788,"BSTAR":-0.000017445487,"MEAN_MOTION_DOT":-0.00000127,"MEAN_MOTION_DDOT":0},{"OBJECT_NAME":"SPOT 7","OBJECT_ID":"2014-034A","EPOCH":"2026-07-20T07:55:08.256288","CLASSIFICATION_TYPE":"U","MEAN_MOTION":14.60982484,"ECCENTRICITY":0.00016275,"INCLINATION":98.0606,"RA_OF_ASC_NODE":262.9649,"ARG_OF_PERICENTER":95.4986,"MEAN_ANOMALY":264.6401,"EPHEMERIS_TYPE":0,"NORAD_CAT_ID":40053,"ELEMENT_SET_NO":999,"REV_AT_EPOCH":64197,"BSTAR":-0.000012126037,"MEAN_MOTION_DOT":-0.00000105,"MEAN_MOTION_DDOT":0}]}
