SPOT 6                  
1 38755U 12047A   26201.33274008 -.00000127  00000+0 -17445-4 0  9996
2 38755  98.2099 268.2507 0001095  93.2886 266.8438 14.58539554737887
SPOT 7                  
1 40053U 14034A   26201.32995667 -.00000105  00000+0 -12126-4 0  9995
2 40053  98.0606 262.9649 0001627  95.4986 264.6401 14.60982484641974
